#dP2024  6 20  0  0  0.00000000      96 __u+U IGS20 EXT  IAC
## 2319 345600.00000000   900.00000000 60481 0.0000000000000
+   53   G02G03G04G05G06G07G08G09G10G11G12G13G14G15G16G17G18
+        G19G21G22G23G24G25G26G27G28G29G30G31G32R01R02R03R04
+        R05R07R08R09R11R12R13R14R15R16R17R18R19R20R21R22R24
+        R25R26  0  0  0  0  0  0  0  0  0  0  0  0  0  0  0
+          0  0  0  0  0  0  0  0  0  0  0  0  0  0  0  0  0
++         9  9  9  9 10  8  8  8  8  9  8  7  7  8  8  9 10
++         8  7 10  9  7  8  8  8  7  8  9  8  8  8  8  8  8
++         8  7  8  8  8  8  9  8  8  8  9 10 10 10 10  8  7
++        10  8  0  0  0  0  0  0  0  0  0  0  0  0  0  0  0
++         0  0  0  0  0  0  0  0  0  0  0  0  0  0  0  0  0
%c M  cc GPS ccc cccc cccc cccc cccc ccccc ccccc ccccc ccccc
%c cc cc ccc ccc cccc cccc cccc cccc ccccc ccccc ccccc ccccc
%f  0.0000000  0.000000000  0.00000000000  0.000000000000000
%f  0.0000000  0.000000000  0.00000000000  0.000000000000000
%i    0    0    0    0      0      0      0      0         0
%i    0    0    0    0      0      0      0      0         0
/* IAC                                ULTRA-RAPID PREDICTION
/* S/V CLOCKS ARE ALIGNED TO GNSS TIME                      
/* G:C1WC2W R:C1PC2P E:C1XC5X C:C2IC6I J:C1CC2S             
/* PCV:IGS20_2317 OL/AL:FES2004  NONE     YN ORB:CoN CLK:CoN
*  2024 06 20 19 30  0.00000000
PG02  -5906.393423  17529.746786 -18469.444957   -414.039499
PG03   7510.398081  19523.602626 -16599.730208    422.713564
PG04   -597.048183  26010.114822   4991.703548    387.368269
PG05   7974.558113 -12575.723042  21810.135173   -177.012545
PG06  24869.391599  -4132.266501  -8474.063641    207.440770
PG07  14092.590650  10133.383716  20737.896594    -87.887258
PG08  -6451.437817  24783.586894   6028.832443    239.021737
PG09   8692.445991  19978.635534  15070.627983    242.349999
PG10 -22997.215261  -9178.927993  -9834.819199    -47.257778
PG11  23042.181039 -12190.443150   4955.903415   -689.558242
PG12  -3817.901276 -19662.674734 -17747.182939   -515.754747
PG13  13504.945267 -19353.736657  11735.788231    659.282244
PG14  22855.645473  12093.850444  -6507.472157    430.137955
PG15   3162.582498 -25597.619166   5402.098984    172.327967
PG16 -12429.930517   8906.051478  21418.495256   -258.817328
PG17  13665.998034   6713.525004 -21329.272652    691.544512
PG18 -14358.982983  -9171.298056  20439.648594   -627.402802
PG19  15717.227708  -2854.187558 -21325.555922    499.220236
PG21 -10720.845108  17925.170864 -15334.592575    114.168503
PG22  21425.683746   6564.091184 -13610.415727    -29.816028
PG23 -21135.928307 -16206.218608   1453.914050    255.053943
PG24   6967.426480 -18736.489534 -17711.740786   -478.963139
PG25 -14026.242921 -19978.644442 -11116.518429    497.604520
PG26 -21796.748221   -355.057197  15265.278511    133.689584
PG27 -12566.565071  17381.527736  15095.184319    -28.877215
PG28 -24124.505181   2934.048289 -10726.244655   -297.509242
PG29  -4684.809919 -22497.958002  13157.312489   -593.319990
PG30  22357.985800   2157.139951  14526.889579   -371.032918
PG31 -24915.641915   9807.820416   -193.279233   -227.278254
PG32 -14672.223005  -4025.821883 -21568.858149   -615.574871
PR01 -11867.683522  -2834.386324 -22396.928228     88.990299
PR02  -5962.644357  14602.653884 -19979.695002    -23.376624
PR03   3356.332239  24494.868688  -6113.630464    102.427543
PR04  10222.008148  20790.685814  10692.178197    242.020430
PR05  11818.144517   5972.713554  21809.875957    133.416731
PR07  -3666.742247 -24671.477969   5500.451068     84.992316
PR08 -10471.558962 -20612.756431 -10750.625773     -5.181009
PR09  15591.601068  -6055.753128 -19267.719519    193.315343
PR11 -17735.029882 -11642.607320 -14133.260071     20.775662
PR12 -24684.620838  -4295.842305   4840.516021     41.549507
PR13 -17672.249253   4302.160770  17876.272152    -48.521199
PR14   2250.120391  11889.096243  22475.570246     26.627426
PR15  18846.042808  11518.653053  12793.566748     78.639120
PR16  24732.102189   4371.985332  -4558.907459     26.670304
PR17  -8055.497940  18086.917121 -16107.222068     97.607088
PR18   5860.596533   8887.210341 -23169.250744    148.001872
PR19  16232.682367  -2789.412603 -19481.136607   -281.008281
PR20  19435.480449 -16507.010801  -1206.300321   -114.825231
PR21   8455.330549 -18032.248325  15912.412031   -110.919871
PR22  -6863.945402  -8520.715672  23063.791889    100.183604
PR24 -18534.687634  17528.777030    662.924454    -60.637463
PR25   8327.588779 -17805.208669  16244.593409    -71.391827
PR26 -10236.074218 -21274.846456  -9604.854985     -5.876089
*  2024 06 20 19 45  0.00000000
PG02  -7823.093817  18436.645500 -16816.522856   -414.033121
PG03   5848.026509  18473.040473 -18381.469225    422.729563
PG04   -895.378947  26384.839786   2158.115034    387.375469
PG05  10102.684931 -11218.363424  21676.805290   -177.013782
PG06  23907.275935  -3539.024811 -11080.964246    207.421468
PG07  12023.676397  11149.127358  21483.597319    -87.878561
PG08  -6698.325118  23900.978088   8720.418001    239.037814
PG09   8385.242112  21577.191574  12890.755120    242.363200
PG10 -23716.877038  -9873.866579  -7173.820334    -47.265466
PG11  23506.639519 -12119.096567   2124.539498   -689.565315
PG12  -2135.302716 -18459.442695 -19275.626019   -515.757629
PG13  13356.088287 -17834.112497  14064.289400    659.284633
PG14  23167.721411  12664.820042  -3775.844191    430.146114
PG15   3548.092546 -24784.092692   8072.387383    172.331799
PG16 -14311.858813   7281.323975  20898.654556   -258.807818
PG17  13233.014965   9168.656778 -20676.640324    691.539090
PG18 -12206.650407 -10186.843479  21320.717916   -627.407047
PG19  15304.400811   -452.544217 -21845.453544    499.225006
PG21 -12353.784822  18569.760976 -13158.400031    114.166243
PG22  22412.745989   7710.014628 -11265.020817    -29.820390
PG23 -20763.802831 -16180.171420   4310.412932    255.062144
PG24   8696.001670 -19500.754708 -15959.093189   -478.965266
PG25 -12789.167835 -19395.862976 -13443.081103    497.604995
PG26 -23097.677862  -1390.922593  13205.943746    133.683826
PG27 -12612.286555  15470.416176  17017.746750    -28.878342
PG28 -23004.036079   2129.558798 -13114.027388   -297.524252
PG29  -4264.467203 -23824.478336  10743.627588   -593.318411
PG30  20861.772961   3080.166873  16452.985033   -371.027291
PG31 -24868.930554   9521.163630  -3004.417642   -227.278011
PG32 -14445.083289  -6502.013788 -21135.301973   -615.573692
PR01 -12744.019316  -5393.390556 -21422.991868     88.991271
PR02  -6589.830954  12112.640265 -21399.051081    -23.376921
PR03   3232.606364  23540.711283  -9154.434662    102.427866
PR04  10688.961381  21836.683027   7731.594427    242.022098
PR05  12589.654427   8467.972921  20511.188403    133.417456
PR07  -3578.689707 -23799.852196   8563.852609     84.993124
PR08 -10938.875260 -21678.063897  -7805.471691     -5.181382
PR09  17816.976600  -5651.277286 -17377.736753    193.317450
PR11 -15912.027069 -11113.682438 -16525.816591     20.774619
PR12 -25102.024174  -4258.904008   1668.570308     41.549976
PR13 -19713.652429   3934.154316  15694.274029    -48.521435
PR14   -470.493005  11251.666464  22905.617776     26.627585
PR15  17186.651546  11018.952058  15323.981030     78.638915
PR16  25125.145100   4304.656211  -1373.448197     26.670687
PR17  -9224.287809  19509.955092 -13633.277384     97.610220
PR18   3885.018622  10923.354273 -22706.161002    148.003638
PR19  14343.182462  -1141.535289 -21066.681404   -281.009132
PR20  19030.418998 -16428.646376  -4425.795404   -114.825700
PR21   9616.178198 -19433.939335  13404.355276   -110.922692
PR22  -4838.534480 -10486.492514  22766.236459    100.179239
PR24 -18231.207557  17435.825364   3860.770521    -60.638807
PR25   9591.941212 -19167.693730  13813.064777    -71.420038
PR26 -10668.910641 -22192.636351  -6588.399751     -5.875266
EOF
